CTC1_L_00167001-01
1 87070U 23115LG  26037.47802083  .00000000  00000+0  00000-0 0  9993
2 87070  95.0000   0.0000 0000000   0.0000   0.0000 13.98209858    12
CTC1_L_00167001-02
1 87071U 23151JC  26037.47802083  .00000000  00000+0  00000-0 0  9994
2 87071  95.0000   0.0000 0000000   0.0000  90.0000 13.98209858    12
CTC1_L_00167001-03
1 87072U 25952HG  26037.47802083  .00000000  00000+0  00000-0 0  9996
2 87072  95.0000   0.0000 0000000   0.0000 180.0000 13.98209858    13
CTC1_L_00167001-04
1 87073U 22106LF  26037.47802083  .00000000  00000+0  00000-0 0  9995
2 87073  95.0000   0.0000 0000000   0.0000 270.0000 13.98209858    14
CTC1_L_00167002-01
1 87074U 24177UQ  26037.47802083  .00000000  00000+0  00000-0 0  9996
2 87074  95.0000  12.0000 0000000   0.0000  12.0000 13.98209858    12
CTC1_L_00167002-02
1 87075U 26810BD  26037.47802083  .00000000  00000+0  00000-0 0  9993
2 87075  95.0000  12.0000 0000000   0.0000 102.0000 13.98209858    13
CTC1_L_00167002-03
1 87076U 23825SC  26037.47802083  .00000000  00000+0  00000-0 0  9997
2 87076  95.0000  12.0000 0000000   0.0000 192.0000 13.98209858    13
CTC1_L_00167002-04
1 87077U 25695IC  26037.47802083  .00000000  00000+0  00000-0 0  9995
2 87077  95.0000  12.0000 0000000   0.0000 282.0000 13.98209858    14
CTC1_L_00167003-01
1 87078U 26559H   26037.47802083  .00000000  00000+0  00000-0 0  9996
2 87078  95.0000  24.0000 0000000   0.0000  24.0000 13.98209858    12
CTC1_L_00167003-02
1 87079U 23268VK  26037.47802083  .00000000  00000+0  00000-0 0  9991
2 87079  95.0000  24.0000 0000000   0.0000 114.0000 13.98209858    13
CTC1_L_00167003-03
1 87080U 23757IL  26037.47802083  .00000000  00000+0  00000-0 0  9996
2 87080  95.0000  24.0000 0000000   0.0000 204.0000 13.98209858    15
CTC1_L_00167003-04
1 87081U 23958DK  26037.47802083  .00000000  00000+0  00000-0 0  9990
2 87081  95.0000  24.0000 0000000   0.0000 294.0000 13.98209858    15
CTC1_L_00167004-01
1 87082U 23550IM  26037.47802083  .00000000  00000+0  00000-0 0  9999
2 87082  95.0000  36.0000 0000000   0.0000  36.0000 13.98209858    13
CTC1_L_00167004-02
1 87083U 22301LI  26037.47802083  .00000000  00000+0  00000-0 0  9993
2 87083  95.0000  36.0000 0000000   0.0000 126.0000 13.98209858    14
CTC1_L_00167004-03
1 87084U 25232RJ  26037.47802083  .00000000  00000+0  00000-0 0  9990
2 87084  95.0000  36.0000 0000000   0.0000 216.0000 13.98209858    15
CTC1_L_00167004-04
1 87085U 25384FC  26037.47802083  .00000000  00000+0  00000-0 0  9999
2 87085  95.0000  36.0000 0000000   0.0000 306.0000 13.98209858    16
CTC1_L_00167005-01
1 87086U 23051BG  26037.47802083  .00000000  00000+0  00000-0 0  9999
2 87086  95.0000  48.0000 0000000   0.0000  48.0000 13.98209858    13
CTC1_L_00167005-02
1 87087U 23699CC  26037.47802083  .00000000  00000+0  00000-0 0  9998
2 87087  95.0000  48.0000 0000000   0.0000 138.0000 13.98209858    14
CTC1_L_00167005-03
1 87088U 23043AF  26037.47802083  .00000000  00000+0  00000-0 0  9992
2 87088  95.0000  48.0000 0000000   0.0000 228.0000 13.98209858    15
CTC1_L_00167005-04
1 87089U 26885CU  26037.47802083  .00000000  00000+0  00000-0 0  9990
2 87089  95.0000  48.0000 0000000   0.0000 318.0000 13.98209858    16
CTC1_L_00167006-01
1 87090U 26101BZ  26037.47802083  .00000000  00000+0  00000-0 0  9993
2 87090  95.0000  60.0000 0000000   0.0000  60.0000 13.98209858    16
CTC1_L_00167006-02
1 87091U 23960ZD  26037.47802083  .00000000  00000+0  00000-0 0  9994
2 87091  95.0000  60.0000 0000000   0.0000 150.0000 13.98209858    17
CTC1_L_00167006-03
1 87092U 24092C   26037.47802083  .00000000  00000+0  00000-0 0  9992
2 87092  95.0000  60.0000 0000000   0.0000 240.0000 13.98209858    18
CTC1_L_00167006-04
1 87093U 22782NP  26037.47802083  .00000000  00000+0  00000-0 0  9997
2 87093  95.0000  60.0000 0000000   0.0000 330.0000 13.98209858    19
CTC1_L_00167007-01
1 87094U 26061MG  26037.47802083  .00000000  00000+0  00000-0 0  9992
2 87094  95.0000  72.0000 0000000   0.0000  72.0000 13.98209858    16
CTC1_L_00167007-02
1 87095U 24045QI  26037.47802083  .00000000  00000+0  00000-0 0  9993
2 87095  95.0000  72.0000 0000000   0.0000 162.0000 13.98209858    17
CTC1_L_00167007-03
1 87096U 22237WX  26037.47802083  .00000000  00000+0  00000-0 0  9995
2 87096  95.0000  72.0000 0000000   0.0000 252.0000 13.98209858    18
CTC1_L_00167007-04
1 87097U 23818OR  26037.47802083  .00000000  00000+0  00000-0 0  9992
2 87097  95.0000  72.0000 0000000   0.0000 342.0000 13.98209858    19
CTC1_L_00167008-01
1 87098U 22272JO  26037.47802083  .00000000  00000+0  00000-0 0  9996
2 87098  95.0000  84.0000 0000000   0.0000  84.0000 13.98209858    16
CTC1_L_00167008-02
1 87099U 24617HH  26037.47802083  .00000000  00000+0  00000-0 0  9992
2 87099  95.0000  84.0000 0000000   0.0000 174.0000 13.98209858    17
CTC1_L_00167008-03
1 87100U 26166AY  26037.47802083  .00000000  00000+0  00000-0 0  9996
2 87100  95.0000  84.0000 0000000   0.0000 264.0000 13.98209858    10
CTC1_L_00167008-04
1 87101U 25586IC  26037.47802083  .00000000  00000+0  00000-0 0  9992
2 87101  95.0000  84.0000 0000000   0.0000 354.0000 13.98209858    11
CTC1_L_00167009-01
1 87102U 24174PM  26037.47802083  .00000000  00000+0  00000-0 0  9995
2 87102  95.0000  96.0000 0000000   0.0000  96.0000 13.98209858    18
CTC1_L_00167009-02
1 87103U 25931NU  26037.47802083  .00000000  00000+0  00000-0 0  9998
2 87103  95.0000  96.0000 0000000   0.0000 186.0000 13.98209858    19
CTC1_L_00167009-03
1 87104U 25451TB  26037.47802083  .00000000  00000+0  00000-0 0  9996
2 87104  95.0000  96.0000 0000000   0.0000 276.0000 13.98209858    10
CTC1_L_00167009-04
1 87105U 22756RT  26037.47802083  .00000000  00000+0  00000-0 0  9992
2 87105  95.0000  96.0000 0000000   0.0000   6.0000 13.98209858    12
CTC1_L_00167010-01
1 87106U 26204D   26037.47802083  .00000000  00000+0  00000-0 0  9995
2 87106  95.0000 108.0000 0000000   0.0000 108.0000 13.98209858    10
CTC1_L_00167010-02
1 87107U 25214DB  26037.47802083  .00000000  00000+0  00000-0 0  9996
2 87107  95.0000 108.0000 0000000   0.0000 198.0000 13.98209858    10
CTC1_L_00167010-03
1 87108U 22716J   26037.47802083  .00000000  00000+0  00000-0 0  9991
2 87108  95.0000 108.0000 0000000   0.0000 288.0000 13.98209858    11
CTC1_L_00167010-04
1 87109U 25758SL  26037.47802083  .00000000  00000+0  00000-0 0  9991
2 87109  95.0000 108.0000 0000000   0.0000  18.0000 13.98209858    13
CTC1_L_00167011-01
1 87110U 25797PU  26037.47802083  .00000000  00000+0  00000-0 0  9996
2 87110  95.0000 120.0000 0000000   0.0000 120.0000 13.98209858    13
CTC1_L_00167011-02
1 87111U 25681LU  26037.47802083  .00000000  00000+0  00000-0 0  9999
2 87111  95.0000 120.0000 0000000   0.0000 210.0000 13.98209858    14
CTC1_L_00167011-03
1 87112U 22073IH  26037.47802083  .00000000  00000+0  00000-0 0  9992
2 87112  95.0000 120.0000 0000000   0.0000 300.0000 13.98209858    15
CTC1_L_00167011-04
1 87113U 24719AC  26037.47802083  .00000000  00000+0  00000-0 0  9992
2 87113  95.0000 120.0000 0000000   0.0000  30.0000 13.98209858    16
CTC1_L_00167012-01
1 87114U 24087CK  26037.47802083  .00000000  00000+0  00000-0 0  9991
2 87114  95.0000 132.0000 0000000   0.0000 132.0000 13.98209858    13
CTC1_L_00167012-02
1 87115U 23645NC  26037.47802083  .00000000  00000+0  00000-0 0  9991
2 87115  95.0000 132.0000 0000000   0.0000 222.0000 13.98209858    14
CTC1_L_00167012-03
1 87116U 25381OJ  26037.47802083  .00000000  00000+0  00000-0 0  9991
2 87116  95.0000 132.0000 0000000   0.0000 312.0000 13.98209858    15
CTC1_L_00167012-04
1 87117U 26659OO  26037.47802083  .00000000  00000+0  00000-0 0  9991
2 87117  95.0000 132.0000 0000000   0.0000  42.0000 13.98209858    16
CTC1_L_00167013-01
1 87118U 22023NC  26037.47802083  .00000000  00000+0  00000-0 0  9993
2 87118  95.0000 144.0000 0000000   0.0000 144.0000 13.98209858    13
CTC1_L_00167013-02
1 87119U 23599XG  26037.47802083  .00000000  00000+0  00000-0 0  9993
2 87119  95.0000 144.0000 0000000   0.0000 234.0000 13.98209858    14
CTC1_L_00167013-03
1 87120U 25296OT  26037.47802083  .00000000  00000+0  00000-0 0  9991
2 87120  95.0000 144.0000 0000000   0.0000 324.0000 13.98209858    16
CTC1_L_00167013-04
1 87121U 22812SJ  26037.47802083  .00000000  00000+0  00000-0 0  9993
2 87121  95.0000 144.0000 0000000   0.0000  54.0000 13.98209858    17
CTC1_L_00167014-01
1 87122U 24035ID  26037.47802083  .00000000  00000+0  00000-0 0  9993
2 87122  95.0000 156.0000 0000000   0.0000 156.0000 13.98209858    14
CTC1_L_00167014-02
1 87123U 23087RE  26037.47802083  .00000000  00000+0  00000-0 0  9990
2 87123  95.0000 156.0000 0000000   0.0000 246.0000 13.98209858    15
CTC1_L_00167014-03
1 87124U 24664DK  26037.47802083  .00000000  00000+0  00000-0 0  9993
2 87124  95.0000 156.0000 0000000   0.0000 336.0000 13.98209858    16
CTC1_L_00167014-04
1 87125U 22594DS  26037.47802083  .00000000  00000+0  00000-0 0  9994
2 87125  95.0000 156.0000 0000000   0.0000  66.0000 13.98209858    17
CTC1_L_00167015-01
1 87126U 22813EV  26037.47802083  .00000000  00000+0  00000-0 0  9999
2 87126  95.0000 168.0000 0000000   0.0000 168.0000 13.98209858    14
CTC1_L_00167015-02
1 87127U 25821DX  26037.47802083  .00000000  00000+0  00000-0 0  9992
2 87127  95.0000 168.0000 0000000   0.0000 258.0000 13.98209858    15
CTC1_L_00167015-03
1 87128U 26423AF  26037.47802083  .00000000  00000+0  00000-0 0  9992
2 87128  95.0000 168.0000 0000000   0.0000 348.0000 13.98209858    16
CTC1_L_00167015-04
1 87129U 25462BZ  26037.47802083  .00000000  00000+0  00000-0 0  9995
2 87129  95.0000 168.0000 0000000   0.0000  78.0000 13.98209858    17
CTC1_L_00167016-01
1 87130U 22957NO  26037.47802083  .00000000  00000+0  00000-0 0  9993
2 87130  95.0000 180.0000 0000000   0.0000 180.0000 13.98209858    17
CTC1_L_00167016-02
1 87131U 22140XY  26037.47802083  .00000000  00000+0  00000-0 0  9998
2 87131  95.0000 180.0000 0000000   0.0000 270.0000 13.98209858    18
